STARLINK-33628          
1 63067U 25035R   26068.27333708  .00023021  00000+0  84325-3 0  9994
2 63067  42.9927 149.6335 0002593 157.1394 202.9573 15.27586768 59666
TEVEL2-9                
1 63237U 25052AD  26068.70229538  .00018694  00000+0  67240-3 0  9992
2 63237  97.4057 324.3929 0007990 124.2475 235.9522 15.28633834 54816
